#dP2024  1 16 18  0  0.00000000      96 __u+U IGS20 EXT  IAC
## 2297 237600.00000000   900.00000000 60325 0.7500000000000
+  119   C06C07C08C09C10C11C12C13C14C16C19C20C21C22C23C24C25
+        C26C27C28C29C30C32C33C34C35C36C37C38C39C40C41C42C43
+        C44C45C46E02E03E04E05E07E08E09E10E11E12E13E14E15E18
+        E19E21E24E25E26E27E30E31E33E34E36G01G02G03G04G05G06
+        G07G08G09G10G11G12G13G14G15G16G17G18G19G20G21G22G23
+        G24G25G26G28G29G30G31G32J02J03J04R01R02R03R04R05R07
+        R08R09R11R12R13R14R15R16R17R18R19R20R21R22R24R25R26
++        10 10 11 11  8  8  7 10  9 10  9  9  8  8  8  7  8
++         6  8  8  7 10 10  8  8  8  9  8  9 10 10 10  8  6
++         9  7  8  7  7  8  7  7  8  8  6  7  6  6  7  8  8
++         8  6  7  7  7  8  7  7  6  8  7  6  6  7  6  8  7
++         7  7  6  8  7  6  6  6  7  6  6  6  6  7  5  5  7
++         7  6  7  6  9  5  6  8 10 11  9  8  6  8  8  7  8
++         8  8  7  8  9  6  7  8  7  7  9  9  7  6  8  6 11
%c M  cc GPS ccc cccc cccc cccc cccc ccccc ccccc ccccc ccccc
%c cc cc ccc ccc cccc cccc cccc cccc ccccc ccccc ccccc ccccc
%f  0.0000000  0.000000000  0.00000000000  0.000000000000000
%f  0.0000000  0.000000000  0.00000000000  0.000000000000000
%i    0    0    0    0      0      0      0      0         0
%i    0    0    0    0      0      0      0      0         0
/* IAC                                ULTRA-RAPID PREDICTION
/* S/V CLOCKS ARE ALIGNED TO GNSS TIME                      
/* G:C1WC2W R:C1PC2P E:C1XC5X C:C2IC6I J:C1CC2S             
/* PCV:IGS20_2290 OL/AL:FES2004  NONE     YN ORB:CoN CLK:CoN
*  2024 01 16 19  0  0.00000000
PC06 -18629.995912  35873.753091 -12475.505404     51.978932
PC07  -2082.228835  35965.902298 -21644.817907   -648.014306
PC08  -8235.026020  19230.307050  36583.589231    107.962375
PC09 -11707.712032  34657.325342 -21054.491714   -361.535856
PC10   3809.629909  37960.442673 -17008.177889    123.436362
PC11 -17926.935849   8662.150381 -19475.910907    361.447245
PC12 -11234.577048 -11927.798627 -22543.897016    794.616929
PC13    120.117596  21948.723551  36182.298842    408.106227
PC14 -19079.890974  -1870.588105  20311.734703    -18.962109
PC16 -19235.409877  35713.310326 -11837.098193   -285.174907
PC19  13727.099422  -7703.687240 -23016.090251   -937.159452
PC20  21008.498437   9579.231872 -15642.524690    -71.604777
PC21 -16171.375629 -22672.831514  -1932.649994   -964.139239
PC22  -1848.999299 -21596.234608 -17589.344197   -145.305094
PC23  -9463.822964  16379.016669 -20520.196020   -789.656439
PC24 -26107.646818  -2997.800052   9325.606832    795.721201
PC25 -24501.881720  10345.846896  -8427.528836    303.385856
PC26 -12825.934609 -13153.667217  20973.726922   -235.636754
PC27   6039.503874  19799.805876  18704.837711    257.663981
PC28  -6564.336540  26532.722943   5642.401252    195.505813
PC29  16549.690219 -18021.809304  13413.120770    229.037905
PC30  16108.491539   2260.834594  22668.379807    -15.765715
PC32  16260.153913  22579.775374   2078.100865   -554.537193
PC33 -13800.918317   7693.278572  23007.304062   -943.416990
PC34 -16628.538298   -513.974657 -22416.374696    348.569444
PC35   5560.455159 -26747.715921  -5596.639542    455.786949
PC36  25085.135271  -9411.556617   7842.540688    -50.274591
PC37  12023.175343  13652.461787 -21167.740284   -932.047443
PC38 -17368.690164  19441.624307  33149.020231    130.870942
PC39 -22187.424441  35727.021969  -4328.685026     -6.672582
PC40  -6400.012161  32484.505931 -25937.420799    -52.360369
PC41   1142.006689  21224.228531  18132.743303   -880.293566
PC42 -21240.879477 -10949.151022  14475.217664   -465.010371
PC43 -16880.663794  17215.997284 -14077.415877     56.661973
PC44  -6822.264049 -19694.258364 -18550.970218    355.750837
PC45   9175.178726 -16281.495187  20720.543835    -63.539811
PC46  26501.138137   2358.781703  -8505.465202   -116.157914
PE02  23830.669421  -2015.768337  17445.479916     95.578518
PE03  15401.529153 -10012.664553 -23216.010563    -87.431118
PE04  -5543.066498  26794.761190  11301.369785   -305.138248
PE05  16174.438081  12396.142172 -21468.313877   4710.944303
PE07  -7246.610207 -27890.006014   6780.815213    -98.736121
PE08   5873.031334 -26460.455403 -11904.824502   -209.005092
PE09   7145.004032  27931.535090  -6686.511775   -301.849373
PE10  -7155.240386  20698.728399  19913.745930   -594.639396
PE11   3768.488701  16520.987501  24269.937720   3279.368807
PE12 -15837.706428  21366.284327  13018.957966   -865.524220
PE13  -3036.518249 -16823.241705 -24152.488578    -19.922305
PE14  -4959.046487 -31279.249015  -4325.775516     12.367769
PE15  16270.461031 -21286.570317 -12560.586523    -80.536425
PE18    357.020355  24092.651446   -307.785896    218.245584
PE19 -15917.024864   7346.722816  23856.581447   -800.283335
PE21 -27075.566205 -11904.022309  -1075.627794   -574.211438
PE24  14192.834438  19721.364259 -16945.932203   -545.636308
PE25  26985.270477  12159.943426    684.100664     -0.427773
PE26 -20741.987791  -2166.198442 -20994.869920    341.164797
PE27 -14658.912178 -19581.737793  16653.070793   -250.971239
PE30   6611.648004 -15511.110923  24311.515795   -829.742680
PE31  -6232.032552  15632.316072 -24351.233222    -13.909959
PE33 -25804.145896  12835.023872  -6736.715729      6.055909
PE34  25729.815948 -13261.020133   6204.948760    -89.348061
PE36  20237.343583   2620.947028  21447.388557   -172.723010
PG01   6862.944224 -18753.946554 -17687.598373    166.291843
PG02  12871.034814 -20358.011342 -10425.827569   -499.916644
PG03   1148.801628 -15428.504579 -21748.143508    130.532152
PG04   1896.703758 -25926.253399  -5069.918441    267.729925
PG05 -13505.731403   9777.426727  20522.397939   -158.207527
PG06 -21659.410655   3029.007157 -15071.086879    442.413294
PG07  -7897.652747 -13584.031322  21878.381811    -38.901477
PG08   6501.022095 -21895.080602  13099.618278   -162.406036
PG09  -7683.125656 -24487.304161   6638.171592     60.943467
PG10  24378.276493  10984.760390   -113.080168    -69.590885
PG11 -23570.480616  11120.841043  -4957.731847   -542.231978
PG12  -2491.022379  15702.529193 -21571.510493   -468.528149
PG13 -13063.874239  13844.670948  18226.481955    616.487815
PG14 -22755.928408 -13551.166396   3076.830925    300.409584
PG15  -3942.733218  22647.253121  12631.399618    117.899515
PG16  19574.913929  -3007.024875  17586.577967   -382.809135
PG17 -12413.551425 -15266.837290 -17340.350567    719.716497
PG18   8468.512092  12290.848610  21983.970862   -533.634615
PG19 -14705.948924  -5940.992265 -21545.045481    427.448817
PG20 -23462.863857   2786.669838  12018.718164    391.208794
PG21  15913.517491 -19481.739667  -6290.104451    138.190368
PG22 -23905.602626 -10188.597065  -4245.721645     47.150727
PG23  18008.280121  15961.961831  11470.411091    136.658122
PG24 -12785.373659  20936.951581 -10044.366907   -415.020014
PG25  10219.876061  17878.616092 -17256.562156    485.480269
PG26  24990.990313   1874.536205   9183.475036    199.711679
PG28  20446.500953   -766.752634 -16954.361504   -100.725781
PG29   4492.520014  25461.511554   5798.448042   -608.597880
PG30 -17244.386381  -5524.582514  19636.860220   -444.646114
PG31  23734.404513  -7763.712515  -9830.712433   -227.343535
PG32  14546.143785  11358.609039 -18982.478101   -605.533583
PJ02 -26645.717131  15434.744813 -24179.300485     -1.218812
PJ03 -26761.549944  32487.832342   2879.166139     -0.165373
PJ04 -24350.861000  27910.057966  26076.671067     77.085794
PR01 -13466.502018  -3108.674082  21444.110899     74.723513
PR02  -4054.484079  13693.229329  21199.855988    -22.405679
PR03   7465.931405  22847.202556   8682.721889     92.811083
PR04  14351.906468  19391.286453  -8285.889449    219.537383
PR05  13673.221674   5540.591260 -20804.319320    125.437730
PR07  -7972.911603 -22917.062358  -7737.403625     73.701763
PR08 -14612.023669 -19047.454762   8628.486636    -74.060038
PR09  15821.311302  -8809.137793  17940.988524    164.716832
PR11 -18348.783783  -7963.777873  15843.268741     37.395456
PR12 -25381.170493    375.966329  -2403.290816     35.672658
PR13 -17951.789214   7582.783540 -16476.270471    -43.365839
PR14   2254.728183  11154.608304 -22823.472593     25.948019
PR15  19386.168937   7687.017876 -14675.601335     83.037572
PR16  25399.594848   -375.386063   2136.953633     22.498698
PR17  -5385.743322  20512.134013  14161.869970     52.941046
PR18   6045.913981   9609.776226  22869.160512    122.453051
PR19  14254.295158  -4339.627875  20709.577728   -262.309532
PR20  15784.643182 -19643.328366   3817.875190   -106.868665
PR21   5354.832621 -20317.930764 -14472.375820    -69.449917
PR22  -6845.095522  -9037.484005 -22817.923914    103.464203
PR24 -14853.332919  20488.452279  -3137.374431    -40.149126
PR25   6062.984982 -20371.410200 -14107.422911     41.355447
PR26 -14551.049419 -19481.840398   7760.222904   -203.184292
EOF
